NORAD_CAT_ID,OBJECT_NAME,OBJECT_TYPE,EPOCH,MEAN_MOTION,ECCENTRICITY,INCLINATION,RA_OF_ASC_NODE,ARG_OF_PERICENTER,MEAN_ANOMALY,BSTAR,MEAN_MOTION_DOT,MEAN_MOTION_DDOT,TLE_LINE0,TLE_LINE1,TLE_LINE2,SEMIMAJOR_AXIS,PERIOD,APOGEE,PERIGEE,DECAYED
53165.0,STARLINK-4090,PAYLOAD,2022-10-24 14:00:01,15.08825365,0.0002105,53.2201,295.2548,34.7282,119.2081,-0.0004272,-7.078e-05,0.0,0 STARLINK-4090,1 53165U 22083AK  22297.58334491 -.00007078  00000-0 -42720-3 0  9996,2 53165  53.2201 295.2548 0002105  34.7282 119.2081 15.08825365  1303,6917.925,95.438,541.246,538.3340000000002,0.0
53165.0,STARLINK-4090,PAYLOAD,2022-10-24 22:00:00,15.08808221,0.0001906999999999,53.2203,293.757,39.7886,125.726,0.002812,0.0004471,0.0,0 STARLINK-4090,1 53165U 22083AK  22297.91667824  .00044710  00000-0  28120-2 0  9991,2 53165  53.2203 293.7570 0001907  39.7886 125.7260 15.08808221  1300,6917.978,95.44,541.1619999999998,538.523,0.0
53165.0,STARLINK-4090,PAYLOAD,2022-10-25 06:00:00,15.08836902,0.0002097,53.2203,292.2623,37.7963,139.2937,-0.00058248,-9.546e-05,0.0,0 STARLINK-4090,1 53165U 22083AK  22298.25001157 -.00009546  00000-0 -58248-3 0  9995,2 53165  53.2203 292.2623 0002097  37.7963 139.2937 15.08836902 16087,6917.89,95.438,541.206,538.304,0.0
53165.0,STARLINK-4090,PAYLOAD,2022-10-25 14:00:01,15.08851713,0.0002106999999999,53.22,290.7656,37.1474,151.5256,-0.0010288,-0.0001663,0.0,0 STARLINK-4090,1 53165U 22083AK  22298.58334491 -.00016630  00000-0 -10288-2 0  9994,2 53165  53.2200 290.7656 0002107  37.1474 151.5256 15.08851713  1303,6917.845,95.437,541.1669999999998,538.252,0.0
53165.0,STARLINK-4090,PAYLOAD,2022-10-25 22:00:01,15.08843001,0.0001958,53.2202,289.268,43.4607,156.8791,0.0008679,0.00013553,0.0,0 STARLINK-4090,1 53165U 22083AK  22298.91668981  .00013553  00000-0  86790-3 0  9996,2 53165  53.2202 289.2680 0001958  43.4607 156.8791 15.08843001  1309,6917.871,95.437,541.091,538.382,0.0
53165.0,STARLINK-4090,PAYLOAD,2022-10-26 14:00:01,15.08849786,0.0002191999999999,53.2198,286.2766,42.2214,181.2425,-0.0013832,-0.00022241,0.0,0 STARLINK-4090,1 53165U 22083AK  22299.58334491 -.00022241  00000-0 -13832-2 0  9998,2 53165  53.2198 286.2766 0002192  42.2214 181.2425 15.08849786 16282,6917.85,95.437,541.232,538.1990000000002,0.0
53165.0,STARLINK-4090,PAYLOAD,2022-10-26 22:00:00,15.08836868,0.0002179,53.2177,284.7788,47.2486,187.8124,-3.7579e-05,-8.86e-06,0.0,0 STARLINK-4090,1 53165U 22083AK  22299.91667824 -.00000886  00000-0 -37579-4 0  9991,2 53165  53.2177 284.7788 0002179  47.2486 187.8124 15.08836868  1309,6917.89,95.438,541.262,538.248,0.0
53165.0,STARLINK-4090,PAYLOAD,2022-10-27 06:00:00,15.08845469,0.0002203,53.2199,283.2845,43.1861,203.4843,-0.00161,-0.00025825,0.0,0 STARLINK-4090,1 53165U 22083AK  22300.25001157 -.00025825  00000-0 -16100-2 0  9997,2 53165  53.2199 283.2845 0002203  43.1861 203.4843 15.08845469 16385,6917.864000000001,95.437,541.253,538.205,0.0
53165.0,STARLINK-4090,PAYLOAD,2022-10-27 14:00:01,15.08837108,0.0002203,53.2197,281.7876,42.1629,216.1438,-0.0015086,-0.00024216,0.0,0 STARLINK-4090,1 53165U 22083AK  22300.58335648 -.00024216  00000-0 -15086-2 0  9993,2 53165  53.2197 281.7876 0002203  42.1629 216.1438 15.08837108  1309,6917.889,95.438,541.278,538.23,0.0
53165.0,STARLINK-4090,PAYLOAD,2022-10-27 22:00:00,15.08819682,0.0002116,53.2198,280.2902,47.8733,221.9524,0.0024446,0.00038811,0.0,0 STARLINK-4090,1 53165U 22083AK  22300.91667824  .00038811  00000-0  24446-2 0  9998,2 53165  53.2198 280.2902 0002116  47.8733 221.9524 15.08819682  1302,6917.941999999999,95.439,541.271,538.344,0.0
53165.0,STARLINK-4090,PAYLOAD,2022-10-28 06:00:00,15.08841016,0.0002319,53.2199,278.7958,44.5865,236.8352,0.00087095,0.00013601,0.0,0 STARLINK-4090,1 53165U 22083AK  22301.25001157  .00013601  00000-0  87095-3 0  9997,2 53165  53.2199 278.7958 0002319  44.5865 236.8352 15.08841016 16532,6917.877,95.437,541.347,538.138,0.0
53165.0,STARLINK-4090,PAYLOAD,2022-10-28 14:00:01,15.08875637,0.0002231999999999,53.2199,277.2988,43.6886,249.3921,-0.0018986,-0.00030408,0.0,0 STARLINK-4090,1 53165U 22083AK  22301.58335648 -.00030408  00000-0 -18986-2 0  9996,2 53165  53.2199 277.2988 0002232  43.6886 249.3921 15.08875637  1302,6917.771,95.435,541.181,538.092,0.0
53165.0,STARLINK-4090,PAYLOAD,2022-10-28 22:00:01,15.08865159,0.0002082,53.22,275.8014,47.657,257.0503,-0.0020127,-0.000322,0.0,0 STARLINK-4090,1 53165U 22083AK  22301.91668981 -.00032200  00000-0 -20127-2 0  9994,2 53165  53.2200 275.8014 0002082  47.6570 257.0503 15.08865159  1306,6917.803000000001,95.436,541.109,538.2280000000002,0.0
53165.0,STARLINK-4090,PAYLOAD,2022-10-29 08:00:01,15.08815238,0.000223,53.2202,273.9332,41.592,7.5741,0.0037406999999999,0.0005971,0.0,0 STARLINK-4090,1 53165U 22083AK  22302.33334491  .00059710  00000-0  37407-2 0  9999,2 53165  53.2202 273.9332 0002230  41.5920   7.5741 15.08815238 16702,6917.956,95.439,541.364,538.278,0.0
53165.0,STARLINK-4090,PAYLOAD,2022-10-29 12:00:00,15.08854173,0.0002195,53.22,273.1845,41.0593,193.8918,0.00034985,5.286e-05,0.0,0 STARLINK-4090,1 53165U 22083AK  22302.50001157  .00005286  00000-0  34985-3 0  9996,2 53165  53.2200 273.1845 0002195  41.0593 193.8918 15.08854173  1308,6917.837,95.437,541.221,538.184,0.0
53165.0,STARLINK-4090,PAYLOAD,2022-10-29 22:00:01,15.08857867,0.0001996,53.2204,271.3128,45.6596,293.8806,0.00060307,9.327e-05,0.0,0 STARLINK-4090,1 53165U 22083AK  22302.91668981  .00009327  00000-0  60307-3 0  9992,2 53165  53.2204 271.3128 0001996  45.6596 293.8806 15.08857867  1307,6917.826,95.436,541.072,538.31,0.0
53165.0,STARLINK-4090,PAYLOAD,2022-10-30 00:00:00,15.08873801,0.0002015,53.2204,270.9393,44.2938,28.0846,-0.0017929,-0.00028736,0.0,0 STARLINK-4090,1 53165U 22083AK  22303.00001157 -.00028736  00000-0 -17929-2 0  9997,2 53165  53.2204 270.9393 0002015  44.2938  28.0846 15.08873801 16803,6917.776999999999,95.435,541.036,538.248,0.0
53165.0,STARLINK-4090,PAYLOAD,2022-10-30 14:00:01,15.08837691,0.0001959,53.2204,268.3212,36.2146,326.4789,-0.003607,-0.00057235,0.0,0 STARLINK-4090,1 53165U 22083AK  22303.58334491 -.00057235  00000-0 -36070-2 0  9994,2 53165  53.2204 268.3212 0001959  36.2146 326.4789 15.08837691  1309,6917.887,95.438,541.1080000000002,538.3969999999998,0.0
53165.0,STARLINK-4090,PAYLOAD,2022-10-30 22:00:01,15.08813377,0.0001875999999999,53.2207,266.8243,41.2938,333.0275,-0.00061509,-0.00010057,0.0,0 STARLINK-4090,1 53165U 22083AK  22303.91668981 -.00010057  00000-0 -61509-3 0  9992,2 53165  53.2207 266.8243 0001876  41.2938 333.0275 15.08813377  1301,6917.962,95.439,541.125,538.529,0.0
53165.0,STARLINK-4090,PAYLOAD,2022-10-31 14:00:01,15.08826542,0.0002023,53.2205,263.8327,40.5628,356.801,-0.00066947,-0.00010923,0.0,0 STARLINK-4090,1 53165U 22083AK  22304.58334491 -.00010923  00000-0 -66947-3 0  9995,2 53165  53.2205 263.8327 0002023  40.5628 356.8010 15.08826542  1300,6917.922,95.438,541.186,538.387,0.0
53165.0,STARLINK-4090,PAYLOAD,2022-10-31 22:00:01,15.08834551,0.000193,53.2206,262.3361,44.9803,4.0188,0.0020185,0.00031978,0.0,0 STARLINK-4090,1 53165U 22083AK  22304.91668981  .00031978  00000-0  20185-2 0  9990,2 53165  53.2206 262.3361 0001930  44.9803   4.0188 15.08834551  1309,6917.897,95.438,541.097,538.427,0.0
53165.0,STARLINK-4090,PAYLOAD,2022-11-01 14:00:01,15.08856637,0.0001895,53.2203,259.344,40.2016,31.9443,-0.00098685,-0.00015967,0.0,0 STARLINK-4090,1 53165U 22083AK  22305.58334491 -.00015967  00000-0 -98685-3 0  9993,2 53165  53.2203 259.3440 0001895  40.2016  31.9443 15.08856637 17191,6917.83,95.437,541.005,538.384,0.0
53165.0,STARLINK-4090,PAYLOAD,2022-11-01 22:00:00,15.08863034,0.0001763,53.2204,257.8474,42.6248,41.1266,-0.0018827,-0.00030145,0.0,0 STARLINK-4090,1 53165U 22083AK  22305.91667824 -.00030145  00000-0 -18827-2 0  9993,2 53165  53.2204 257.8474 0001763  42.6248  41.1266 15.08863034  1300,6917.81,95.436,540.895,538.455,0.0
53165.0,STARLINK-4090,PAYLOAD,2022-11-02 14:00:01,15.08817486,0.0001816,53.2197,254.8545,41.7163,65.2233,0.0002658,3.942e-05,0.0,0 STARLINK-4090,1 53165U 22083AK  22306.58334491  .00003942  00000-0  26580-3 0  9997,2 53165  53.2197 254.8545 0001816  41.7163  65.2233 15.08817486  1303,6917.949000000001,95.439,541.071,538.558,0.0
53165.0,STARLINK-4090,PAYLOAD,2022-11-02 18:00:02,15.08796904,0.0001751999999999,53.2191,254.1049,44.2727,248.5207,0.0042068999999999,0.00067225,0.0,0 STARLINK-4090,1 53165U 22083AK  22306.75002315  .00067225  00000-0  42069-2 0  9996,2 53165  53.2191 254.1049 0001752  44.2727 248.5207 15.08796904 17363,6918.012,95.44,541.089,538.665,0.0
53165.0,STARLINK-4090,PAYLOAD,2022-11-03 03:50:11,15.08838331,0.0002111,53.2205,252.2676,42.721,317.3946,5.9008e-06,-1.94e-06,0.0,0 STARLINK-4090,1 53165U 22083AK  22307.15985468 -.00000194  00000-0  59008-5 0  9997,2 53165  53.2205 252.2676 0002111  42.7210 317.3946 15.08838331 17438,6917.885,95.438,541.211,538.29,0.0
53165.0,STARLINK-4090,PAYLOAD,2022-11-03 07:00:57,15.0884299,0.0002137,53.2205,251.6726,43.4146,316.7014,7.801e-05,9.54e-06,0.0,0 STARLINK-4090,1 53165U 22083AK  22307.29233284  .00000954  00000-0  78010-4 0  9990,2 53165  53.2205 251.6726 0002137  43.4146 316.7014 15.08842990 16828,6917.871,95.437,541.215,538.258,0.0
53165.0,STARLINK-4090,PAYLOAD,2022-11-03 19:44:01,15.08863976,0.0002014,53.2204,249.294,43.8136,316.3015,0.00037215,5.643e-05,0.0,0 STARLINK-4090,1 53165U 22083AK  22307.82223951  .00005643  00000-0  37215-3 0  9990,2 53165  53.2204 249.2940 0002014  43.8136 316.3015 15.08863976 17538,6917.807,95.436,541.065,538.279,0.0
53165.0,STARLINK-4090,PAYLOAD,2022-11-04 08:27:06,15.08865283,0.0002043,53.2199,246.9156,44.3025,315.813,0.00048003,7.365e-05,0.0,0 STARLINK-4090,1 53165U 22083AK  22308.35215757  .00007365  00000-0  48003-3 0  9994,2 53165  53.2199 246.9156 0002043  44.3025 315.8130 15.08865283 17613,6917.803000000001,95.436,541.081,538.255,0.0
